start=new Date('2022-02-01T00:00:00.000Z').valueOf();
sats=[{"APOAPSIS":"548.380","BSTAR":"0.00060223000000","SEMIMAJOR_AXIS":"6925.299","PERIAPSIS":"545.949","LAUNCH_DATE":"2020-10-06","REV_AT_EPOCH":"7400","EPHEMERIS_TYPE":"0","TLE_LINE1":"1 46589U 20070BK  22031.74198472  .00008704  00000-0  60223-3 0  9996","PERIOD":"95.591","TIME_SYSTEM":"UTC","GP_ID":"195053039","DECAY_DATE":null,"RCS_SIZE":"LARGE","MEAN_MOTION_DDOT":"0.0000000000000","RA_OF_ASC_NODE":"41.1657","OBJECT_TYPE":"PAYLOAD","COUNTRY_CODE":"US","NORAD_CAT_ID":"46589","CENTER_NAME":"EARTH","OBJECT_NAME":"STARLINK-1749","ECCENTRICITY":"0.00017550","MEAN_MOTION":"15.06416129","MEAN_MOTION_DOT":"0.00008704","EPOCH":"2022-01-31T17:48:27.479808","INCLINATION":"53.0543","MEAN_ELEMENT_THEORY":"SGP4","CLASSIFICATION_TYPE":"U","FILE":"3288814","ELEMENT_SET_NO":"999","MEAN_ANOMALY":"305.1637","REF_FRAME":"TEME","SITE":"AFETR","TLE_LINE2":"2 46589  53.0543  41.1657 0001755  54.9517 305.1637 15.06416129 74008","ARG_OF_PERICENTER":"54.9517","OBJECT_ID":"2020-070BK"},{"SEMIMAJOR_AXIS":"6785.844","BSTAR":"0.00344870000000","APOAPSIS":"408.492","TLE_LINE1":"1 46590U 20070BL  22031.91431944  .00225469  00000-0  34487-2 0  9992","EPHEMERIS_TYPE":"0","REV_AT_EPOCH":"7546","LAUNCH_DATE":"2020-10-06","PERIAPSIS":"406.926","GP_ID":"195052790","DECAY_DATE":null,"PERIOD":"92.718","TIME_SYSTEM":"UTC","RA_OF_ASC_NODE":"298.6208","MEAN_MOTION_DDOT":"0.0000000000000","RCS_SIZE":"LARGE","OBJECT_NAME":"STARLINK-1754","CENTER_NAME":"EARTH","NORAD_CAT_ID":"46590","COUNTRY_CODE":"US","OBJECT_TYPE":"PAYLOAD","MEAN_ELEMENT_THEORY":"SGP4","INCLINATION":"53.0570","EPOCH":"2022-01-31T21:56:37.199616","MEAN_MOTION_DOT":"0.00225469","MEAN_MOTION":"15.53091075","ECCENTRICITY":"0.00011540","MEAN_ANOMALY":"244.6883","ELEMENT_SET_NO":"999","FILE":"3288814","CLASSIFICATION_TYPE":"U","OBJECT_ID":"2020-070BL","ARG_OF_PERICENTER":"115.4246","TLE_LINE2":"2 46590  53.0570 298.6208 0001154 115.4246 244.6883 15.53091075 75468","SITE":"AFETR","REF_FRAME":"TEME"},{"MEAN_MOTION_DOT":"-0.00000574","INCLINATION":"53.0541","MEAN_ELEMENT_THEORY":"SGP4","EPOCH":"2022-01-31T20:43:36.586560","ECCENTRICITY":"0.00013070","MEAN_MOTION":"15.06392943","NORAD_CAT_ID":"46591","OBJECT_NAME":"STARLINK-1755","CENTER_NAME":"EARTH","COUNTRY_CODE":"US","OBJECT_TYPE":"PAYLOAD","OBJECT_ID":"2020-070BM","ARG_OF_PERICENTER":"71.1364","REF_FRAME":"TEME","TLE_LINE2":"2 46591  53.0541  40.6273 0001307  71.1364 288.9767 15.06392943 74033","SITE":"AFETR","MEAN_ANOMALY":"288.9767","FILE":"3288619","CLASSIFICATION_TYPE":"U","ELEMENT_SET_NO":"999","REV_AT_EPOCH":"7403","TLE_LINE1":"1 46591U 20070BM  22031.86361790 -.00000574  00000-0 -19637-4 0  9990","EPHEMERIS_TYPE":"0","PERIAPSIS":"546.330","LAUNCH_DATE":"2020-10-06","SEMIMAJOR_AXIS":"6925.370","APOAPSIS":"548.140","BSTAR":"-0.00001963700000","MEAN_MOTION_DDOT":"0.0000000000000","RA_OF_ASC_NODE":"40.6273","RCS_SIZE":"LARGE","GP_ID":"195028026","DECAY_DATE":null,"PERIOD":"95.593","TIME_SYSTEM":"UTC"},{"RA_OF_ASC_NODE":"131.4932","MEAN_MOTION_DDOT":"0.0000000000000","RCS_SIZE":"LARGE","DECAY_DATE":null,"GP_ID":"195052798","TIME_SYSTEM":"UTC","PERIOD":"95.592","TLE_LINE1":"1 46671U 20073B   22031.67006937  .00001361  00000-0  11029-3 0  9999","EPHEMERIS_TYPE":"0","REV_AT_EPOCH":"7127","LAUNCH_DATE":"2020-10-18","PERIAPSIS":"546.110","SEMIMAJOR_AXIS":"6925.356","BSTAR":"0.00011029000000","APOAPSIS":"548.331","OBJECT_ID":"2020-073B","ARG_OF_PERICENTER":"70.3745","TLE_LINE2":"2 46671  53.0561 131.4932 0001603  70.3745 289.7417 15.06397706 71274","SITE":"AFETR","REF_FRAME":"TEME","MEAN_ANOMALY":"289.7417","ELEMENT_SET_NO":"999","FILE":"3288814","CLASSIFICATION_TYPE":"U","INCLINATION":"53.0561","MEAN_ELEMENT_THEORY":"SGP4","EPOCH":"2022-01-31T16:04:53.993568","MEAN_MOTION_DOT":"0.00001361","MEAN_MOTION":"15.06397706","ECCENTRICITY":"0.00016030","OBJECT_NAME":"STARLINK-1715","CENTER_NAME":"EARTH","NORAD_CAT_ID":"46671","COUNTRY_CODE":"US","OBJECT_TYPE":"PAYLOAD"},{"PERIOD":"95.592","TIME_SYSTEM":"UTC","GP_ID":"195054049","DECAY_DATE":null,"RCS_SIZE":"LARGE","MEAN_MOTION_DDOT":"0.0000000000000","RA_OF_ASC_NODE":"126.8967","APOAPSIS":"548.215","BSTAR":"0.00002687300000","SEMIMAJOR_AXIS":"6925.353","PERIAPSIS":"546.221","LAUNCH_DATE":"2020-10-18","REV_AT_EPOCH":"7133","EPHEMERIS_TYPE":"0","TLE_LINE1":"1 46672U 20073C   22031.57749206  .00000119  00000-0  26873-4 0  9996","CLASSIFICATION_TYPE":"U","FILE":"3288814","ELEMENT_SET_NO":"999","MEAN_ANOMALY":"284.8628","REF_FRAME":"TEME","SITE":"AFETR","TLE_LINE2":"2 46672  53.0539 126.8967 0001440  75.2521 284.8628 15.06398571 71339","ARG_OF_PERICENTER":"75.2521","OBJECT_ID":"2020-073C","OBJECT_TYPE":"PAYLOAD","COUNTRY_CODE":"US","NORAD_CAT_ID":"46672","CENTER_NAME":"EARTH","OBJECT_NAME":"STARLINK-1716","ECCENTRICITY":"0.00014400","MEAN_MOTION":"15.06398571","MEAN_MOTION_DOT":"0.00000119","EPOCH":"2022-01-31T13:51:35.313984","MEAN_ELEMENT_THEORY":"SGP4","INCLINATION":"53.0539"},{"MEAN_MOTION_DDOT":"0.0000000000000","RA_OF_ASC_NODE":"141.4516","RCS_SIZE":"LARGE","GP_ID":"195054297","DECAY_DATE":null,"TIME_SYSTEM":"UTC","PERIOD":"95.593","REV_AT_EPOCH":"7113","EPHEMERIS_TYPE":"0","TLE_LINE1":"1 46673U 20073D   22031.68021985 -.00001164  00000-0 -59287-4 0  9994","PERIAPSIS":"546.224","LAUNCH_DATE":"2020-10-18","SEMIMAJOR_AXIS":"6925.377","APOAPSIS":"548.260","BSTAR":"-0.00005928700000","ARG_OF_PERICENTER":"76.7760","OBJECT_ID":"2020-073D","REF_FRAME":"TEME","SITE":"AFETR","TLE_LINE2":"2 46673  53.0545 141.4516 0001470  76.7760 283.3392 15.06390802 71133","MEAN_ANOMALY":"283.3392","CLASSIFICATION_TYPE":"U","FILE":"3288814","ELEMENT_SET_NO":"999","MEAN_MOTION_DOT":"-0.00001164","EPOCH":"2022-01-31T16:19:30.995040","MEAN_ELEMENT_THEORY":"SGP4","INCLINATION":"53.0545","ECCENTRICITY":"0.00014700","MEAN_MOTION":"15.06390802","NORAD_CAT_ID":"46673","CENTER_NAME":"EARTH","OBJECT_NAME":"STARLINK-1717","OBJECT_TYPE":"PAYLOAD","COUNTRY_CODE":"US"},{"TIME_SYSTEM":"UTC","PERIOD":"95.593","GP_ID":"195052548","DECAY_DATE":null,"RCS_SIZE":"LARGE","RA_OF_ASC_NODE":"126.4973","MEAN_MOTION_DDOT":"0.0000000000000","BSTAR":"0.00004244500000","APOAPSIS":"548.361","SEMIMAJOR_AXIS":"6925.372","LAUNCH_DATE":"2020-10-18","PERIAPSIS":"546.113","EPHEMERIS_TYPE":"0","TLE_LINE1":"1 46674U 20073E   22031.66963640  .00000351  00000-0  42445-4 0  9999","REV_AT_EPOCH":"7134","ELEMENT_SET_NO":"999","CLASSIFICATION_TYPE":"U","FILE":"3288814","MEAN_ANOMALY":"271.5971","SITE":"AFETR","TLE_LINE2":"2 46674  53.0548 126.4973 0001623  88.5204 271.5971 15.06392219 71340","REF_FRAME":"TEME","ARG_OF_PERICENTER":"88.5204","OBJECT_ID":"2020-073E","OBJECT_TYPE":"PAYLOAD","COUNTRY_CODE":"US","CENTER_NAME":"EARTH","OBJECT_NAME":"STARLINK-1718","NORAD_CAT_ID":"46674","MEAN_MOTION":"15.06392219","ECCENTRICITY":"0.00016230","EPOCH":"2022-01-31T16:04:16.584960","INCLINATION":"53.0548","MEAN_ELEMENT_THEORY":"SGP4","MEAN_MOTION_DOT":"0.00000351"},{"COUNTRY_CODE":"US","OBJECT_TYPE":"PAYLOAD","OBJECT_NAME":"STARLINK-1720","CENTER_NAME":"EARTH","NORAD_CAT_ID":"46675","MEAN_MOTION":"15.06400776","ECCENTRICITY":"0.00014950","MEAN_ELEMENT_THEORY":"SGP4","INCLINATION":"53.0550","EPOCH":"2022-01-31T15:58:58.105920","MEAN_MOTION_DOT":"-0.00000339","ELEMENT_SET_NO":"999","FILE":"3288814","CLASSIFICATION_TYPE":"U","MEAN_ANOMALY":"275.7069","TLE_LINE2":"2 46675  53.0550 126.5166 0001495  84.4091 275.7069 15.06400776 71347","SITE":"AFETR","REF_FRAME":"TEME","OBJECT_ID":"2020-073F","ARG_OF_PERICENTER":"84.4091","BSTAR":"-0.00000384830000","APOAPSIS":"548.247","SEMIMAJOR_AXIS":"6925.346","LAUNCH_DATE":"2020-10-18","PERIAPSIS":"546.176","TLE_LINE1":"1 46675U 20073F   22031.66595030 -.00000339  00000-0 -38483-5 0  9990","EPHEMERIS_TYPE":"0","REV_AT_EPOCH":"7134","TIME_SYSTEM":"UTC","PERIOD":"95.592","GP_ID":"195053298","DECAY_DATE":null,"RCS_SIZE":"LARGE","RA_OF_ASC_NODE":"126.5166","MEAN_MOTION_DDOT":"0.0000000000000"},{"MEAN_ANOMALY":"291.7034","CLASSIFICATION_TYPE":"U","FILE":"3288814","ELEMENT_SET_NO":"999","ARG_OF_PERICENTER":"68.4115","OBJECT_ID":"2020-073H","REF_FRAME":"TEME","SITE":"AFETR","TLE_LINE2":"2 46677  53.0543 126.5284 0001500  68.4115 291.7034 15.06400716 71342","NORAD_CAT_ID":"46677","CENTER_NAME":"EARTH","OBJECT_NAME":"STARLINK-1766","OBJECT_TYPE":"PAYLOAD","COUNTRY_CODE":"US","MEAN_MOTION_DOT":"-0.00000032","EPOCH":"2022-01-31T15:53:39.734016","INCLINATION":"53.0543","MEAN_ELEMENT_THEORY":"SGP4","ECCENTRICITY":"0.00015000","MEAN_MOTION":"15.06400716","GP_ID":"195053550","DECAY_DATE":null,"PERIOD":"95.592","TIME_SYSTEM":"UTC","MEAN_MOTION_DDOT":"0.0000000000000","RA_OF_ASC_NODE":"126.5284","RCS_SIZE":"LARGE","SEMIMAJOR_AXIS":"6925.346","APOAPSIS":"548.250","BSTAR":"0.00001674100000","REV_AT_EPOCH":"7134","EPHEMERIS_TYPE":"0","TLE_LINE1":"1 46677U 20073H   22031.66226544 -.00000032  00000-0  16741-4 0  9994","PERIAPSIS":"546.173","LAUNCH_DATE":"2020-10-18"},{"MEAN_ANOMALY":"312.1732","CLASSIFICATION_TYPE":"U","FILE":"3288447","ELEMENT_SET_NO":"999","ARG_OF_PERICENTER":"47.9399","OBJECT_ID":"2020-073K","REF_FRAME":"TEME","SITE":"AFETR","TLE_LINE2":"2 46679  53.0561 107.3840 0001675  47.9399 312.1732 15.06410248 71599","NORAD_CAT_ID":"46679","CENTER_NAME":"EARTH","OBJECT_NAME":"STARLINK-1773","OBJECT_TYPE":"PAYLOAD","COUNTRY_CODE":"US","MEAN_MOTION_DOT":"0.00008807","EPOCH":"2022-01-31T11:15:00.264384","INCLINATION":"53.0561","MEAN_ELEMENT_THEORY":"SGP4","ECCENTRICITY":"0.00016750","MEAN_MOTION":"15.06410248","GP_ID":"195019355","DECAY_DATE":null,"PERIOD":"95.591","TIME_SYSTEM":"UTC","MEAN_MOTION_DDOT":"0.0000000000000","RA_OF_ASC_NODE":"107.3840","RCS_SIZE":"LARGE","SEMIMAJOR_AXIS":"6925.317","APOAPSIS":"548.342","BSTAR":"0.00060925000000","REV_AT_EPOCH":"7159","EPHEMERIS_TYPE":"0","TLE_LINE1":"1 46679U 20073K   22031.46875306  .00008807  00000-0  60925-3 0  9999","PERIAPSIS":"546.022","LAUNCH_DATE":"2020-10-18"}];
